NORAD_CAT_ID,OBJECT_NAME,OBJECT_TYPE,EPOCH,MEAN_MOTION,ECCENTRICITY,INCLINATION,RA_OF_ASC_NODE,ARG_OF_PERICENTER,MEAN_ANOMALY,BSTAR,MEAN_MOTION_DOT,MEAN_MOTION_DDOT,TLE_LINE0,TLE_LINE1,TLE_LINE2,SEMIMAJOR_AXIS,PERIOD,APOGEE,PERIGEE,DECAYED
51787.0,STARLINK-3619,PAYLOAD,2023-07-11 00:03:13,15.08841137,0.000106,53.2172,35.6836,85.8362,274.2751,4.0389e-05,3.55e-06,0.0,0 STARLINK-3619,1 51787U 22017V   23192.00223414  .00000355  00000-0  40389-4 0  9994,2 51787  53.2172  35.6836 0001060  85.8362 274.2751 15.08841137 77077,6917.877,95.437,540.475,539.009,0.0
51787.0,STARLINK-3619,PAYLOAD,2023-07-12 12:37:05,15.08831151,9.32e-05,53.2175,28.8438,87.0792,273.0307,-7.8005e-06,-4.12e-06,0.0,0 STARLINK-3619,1 51787U 22017V   23193.52576331 -.00000412  00000-0 -78005-5 0  9994,2 51787  53.2175  28.8438 0000932  87.0792 273.0307 15.08831151 77305,6917.907,95.438,540.417,539.128,0.0
51787.0,STARLINK-3619,PAYLOAD,2023-07-12 18:58:37,15.0884218,0.0001095,53.2176,27.6545,88.0213,272.0904,2.8704e-05,1.69e-06,0.0,0 STARLINK-3619,1 51787U 22017V   23193.79071650  .00000169  00000-0  28704-4 0  9994,2 51787  53.2176  27.6545 0001095  88.0213 272.0904 15.08842180 77342,6917.874,95.437,540.496,538.981,0.0
51787.0,STARLINK-3619,PAYLOAD,2023-07-13 20:24:48,15.08845492,0.0001038,53.2177,22.8977,90.2134,269.8977,6.4196e-06,-1.86e-06,0.0,0 STARLINK-3619,1 51787U 22017V   23194.85055607 -.00000186  00000-0  64196-5 0  9992,2 51787  53.2177  22.8977 0001038  90.2134 269.8977 15.08845492 77504,6917.864,95.437,540.447,539.011,0.0
51787.0,STARLINK-3619,PAYLOAD,2023-07-15 12:09:27,15.08833761,0.0001029,53.2173,15.4613,92.4559,267.6551,6.4014e-05,7.31e-06,0.0,0 STARLINK-3619,1 51787U 22017V   23196.50656250  .00000731  00000-0  64014-4 0  9990,2 51787  53.2173  15.4613 0001029  92.4559 267.6551 15.08833761 77757,6917.899,95.438,540.476,539.053,0.0
51787.0,STARLINK-3619,PAYLOAD,2023-07-16 18:21:46,15.08838518,0.0001205,53.2173,9.8133,81.8212,278.2917,3.2594e-05,2.31e-06,0.0,0 STARLINK-3619,1 51787U 22017V   23197.76512370  .00000231  00000-0  32594-4 0  9996,2 51787  53.2173   9.8133 0001205  81.8212 278.2917 15.08838518 77945,6917.885,95.438,540.584,538.916,0.0
51787.0,STARLINK-3619,PAYLOAD,2023-07-17 18:12:32,15.08849537,0.000114,53.2187,5.3523,78.2146,281.8974,0.0001565,2.204e-05,0.0,0 STARLINK-3619,1 51787U 22017V   23198.75871477  .00002204  00000-0  15650-3 0  9997,2 51787  53.2187   5.3523 0001140  78.2146 281.8974 15.08849537 78091,6917.851,95.437,540.505,538.928,0.0
51787.0,STARLINK-3619,PAYLOAD,2023-07-18 11:41:48,15.08834818,0.0001333,53.2189,2.0817,80.7173,279.397,0.00011646,1.566e-05,0.0,0 STARLINK-3619,1 51787U 22017V   23199.48736741  .00001566  00000-0  11646-3 0  9993,2 51787  53.2189   2.0817 0001333  80.7173 279.3970 15.08834818 78202,6917.896,95.438,540.683,538.839,0.0
51787.0,STARLINK-3619,PAYLOAD,2023-07-18 19:38:43,15.08846006,0.0001262,53.2182,0.5935,80.0802,280.0332,9.7515e-05,1.265e-05,0.0,0 STARLINK-3619,1 51787U 22017V   23199.81855948  .00001265  00000-0  97515-4 0  9997,2 51787  53.2182   0.5935 0001262  80.0802 280.0332 15.08846006 78250,6917.862,95.437,540.6,538.854,0.0
51787.0,STARLINK-3619,PAYLOAD,2023-07-19 21:04:54,15.08834756,0.0001208,53.218,355.835,107.1722,252.9402,-8.5537e-05,-1.649e-05,0.0,0 STARLINK-3619,1 51787U 22017V   23200.87840893 -.00001649  00000-0 -85537-4 0  9998,2 51787  53.2180 355.8350 0001208 107.1722 252.9402 15.08834756 78410,6917.896,95.438,540.597,538.926,0.0
51787.0,STARLINK-3619,PAYLOAD,2023-07-20 19:20:18,15.08845578,0.0001091,53.2176,351.6734,101.8219,258.2896,0.00018993,2.737e-05,0.0,0 STARLINK-3619,1 51787U 22017V   23201.80576708  .00002737  00000-0  18993-3 0  9991,2 51787  53.2176 351.6734 0001091 101.8219 258.2896 15.08845578 78552,6917.863,95.437,540.483,538.974,0.0
51787.0,STARLINK-3619,PAYLOAD,2023-07-24 09:11:07,15.08841051,0.0001015,53.2172,335.6152,101.2035,258.9072,0.00010842,1.438e-05,0.0,0 STARLINK-3619,1 51787U 22017V   23205.38272946  .00001438  00000-0  10842-3 0  9997,2 51787  53.2172 335.6152 0001015 101.2035 258.9072 15.08841051 77453,6917.877,95.437,540.444,539.04,0.0
51787.0,STARLINK-3619,PAYLOAD,2023-07-25 12:12:41,15.0883704,0.0001357,53.2174,330.563,95.0894,265.0253,0.00010849,1.439e-05,0.0,0 STARLINK-3619,1 51787U 22017V   23206.50881360  .00001439  00000-0  10849-3 0  9996,2 51787  53.2174 330.5630 0001357  95.0894 265.0253 15.08837040 77624,6917.889,95.438,540.693,538.816,0.0
51787.0,STARLINK-3619,PAYLOAD,2023-07-26 08:52:42,15.08841097,0.0001082,53.2184,326.6969,99.687,260.4244,1.0253e-05,-1.25e-06,0.0,0 STARLINK-3619,1 51787U 22017V   23207.36993158 -.00000125  00000-0  10253-4 0  9992,2 51787  53.2184 326.6969 0001082  99.6870 260.4244 15.08841097 77755,6917.877,95.437,540.491,538.994,0.0
51787.0,STARLINK-3619,PAYLOAD,2023-07-27 00:46:32,15.08850837,9.07e-05,53.2171,323.7233,84.0735,276.036,0.00028033,4.178e-05,0.0,0 STARLINK-3619,1 51787U 22017V   23208.03232524  .00004178  00000-0  28033-3 0  9995,2 51787  53.2171 323.7233 0000907  84.0735 276.0360 15.08850837 79493,6917.847,95.437,540.34,539.085,0.0
51787.0,STARLINK-3619,PAYLOAD,2023-07-27 07:08:05,15.08846114,0.0001154,53.2184,322.5359,98.4475,261.6648,0.00010629,1.404e-05,0.0,0 STARLINK-3619,1 51787U 22017V   23208.29728672  .00001404  00000-0  10629-3 0  9998,2 51787  53.2184 322.5359 0001154  98.4475 261.6648 15.08846114 77892,6917.862,95.437,540.525,538.928,0.0
51787.0,STARLINK-3619,PAYLOAD,2023-07-27 19:51:10,15.08849256,0.0001545,53.2169,320.1541,82.9465,277.1703,0.00013032,1.787e-05,0.0,0 STARLINK-3619,1 51787U 22017V   23208.82720450  .00001787  00000-0  13032-3 0  9998,2 51787  53.2169 320.1541 0001545  82.9465 277.1703 15.08849256 77976,6917.852,95.437,540.786,538.648,0.0
51787.0,STARLINK-3619,PAYLOAD,2023-07-28 16:31:12,15.08831367,0.0001535,53.2156,316.2879,85.7015,274.4153,-0.00015735,-2.791e-05,0.0,0 STARLINK-3619,1 51787U 22017V   23209.68833584 -.00002791  00000-0 -15735-3 0  9996,2 51787  53.2156 316.2879 0001535  85.7015 274.4153 15.08831367 79743,6917.907,95.438,540.834,538.71,0.0
51787.0,STARLINK-3619,PAYLOAD,2023-07-29 17:57:21,15.08852391,0.0001117,53.2166,311.5309,83.8231,276.2888,0.0002373,3.492e-05,0.0,0 STARLINK-3619,1 51787U 22017V   23210.74816570  .00003492  00000-0  23730-3 0  9992,2 51787  53.2166 311.5309 0001117  83.8231 276.2888 15.08852391 79908,6917.843,95.437,540.48,538.935,0.0
51787.0,STARLINK-3619,PAYLOAD,2023-07-30 09:51:14,15.08835533,9.38e-05,53.2148,308.5567,98.3943,261.7155,0.00014215,1.975e-05,0.0,0 STARLINK-3619,1 51787U 22017V   23211.41057922  .00001975  00000-0  14215-3 0  9997,2 51787  53.2148 308.5567 0000938  98.3943 261.7155 15.08835533 80009,6917.894,95.438,540.408,539.11,0.0
51787.0,STARLINK-3619,PAYLOAD,2023-07-31 16:03:33,15.08859031,0.0001186,53.2174,302.909,80.1842,279.9284,0.00042539,6.492e-05,0.0,0 STARLINK-3619,1 51787U 22017V   23212.66913207  .00006492  00000-0  42539-3 0  9991,2 51787  53.2174 302.9090 0001186  80.1842 279.9284 15.08859031 80193,6917.822,95.436,540.508,538.867,0.0
51787.0,STARLINK-3619,PAYLOAD,2023-08-01 15:54:20,15.08849099,0.00012,53.2169,298.4464,84.0172,276.0957,0.00024594,3.629e-05,0.0,0 STARLINK-3619,1 51787U 22017V   23213.66273426  .00003629  00000-0  24594-3 0  9994,2 51787  53.2169 298.4464 0001200  84.0172 276.0957 15.08849099 80342,6917.853,95.437,540.548,538.887,0.0
51787.0,STARLINK-3619,PAYLOAD,2023-08-02 09:23:35,15.08838953,0.0001251,53.216,295.1727,68.766,291.3466,-6.365e-06,-3.89e-06,0.0,0 STARLINK-3619,1 51787U 22017V   23214.39137876 -.00000389  00000-0 -63650-5 0  9993,2 51787  53.2160 295.1727 0001251  68.7660 291.3466 15.08838953 80450,6917.884,95.438,540.614,538.883,0.0
51787.0,STARLINK-3619,PAYLOAD,2023-08-02 15:45:07,15.08847941,0.00012,53.2165,293.9865,84.4463,275.6666,0.00020462,2.971e-05,0.0,0 STARLINK-3619,1 51787U 22017V   23214.65633455  .00002971  00000-0  20462-3 0  9995,2 51787  53.2165 293.9865 0001200  84.4463 275.6666 15.08847941 80492,6917.856,95.437,540.551,538.891,0.0
51787.0,STARLINK-3619,PAYLOAD,2023-08-03 10:49:45,15.08845319,0.000127,53.2169,290.419,90.6141,269.4996,0.00023854,3.511e-05,0.0,0 STARLINK-3619,1 51787U 22017V   23215.45121741  .00003511  00000-0  23854-3 0  9993,2 51787  53.2169 290.4190 0001270  90.6141 269.4996 15.08845319 80616,6917.864,95.437,540.608,538.851,0.0
51787.0,STARLINK-3619,PAYLOAD,2023-08-03 17:11:17,15.08856152,0.0001299,53.2169,289.2291,86.3928,273.7213,0.00039535,6.012e-05,0.0,0 STARLINK-3619,1 51787U 22017V   23215.71617220  .00006012  00000-0  39535-3 0  9996,2 51787  53.2169 289.2291 0001299  86.3928 273.7213 15.08856152 80651,6917.831,95.437,540.595,538.797,0.0
51787.0,STARLINK-3619,PAYLOAD,2023-08-04 10:40:32,15.08833613,0.0001326,53.2166,285.9581,86.3184,273.796,-4.5748e-05,-1.016e-05,0.0,0 STARLINK-3619,1 51787U 22017V   23216.44482204 -.00001016  00000-0 -45748-4 0  9994,2 51787  53.2166 285.9581 0001326  86.3184 273.7960 15.08833613 80766,6917.9,95.438,540.682,538.848,0.0
51787.0,STARLINK-3619,PAYLOAD,2023-08-05 12:06:43,15.08841273,0.0001468,53.2164,281.1983,71.9915,288.1237,0.00018768,2.7e-05,0.0,0 STARLINK-3619,1 51787U 22017V   23217.50466554  .00002700  00000-0  18768-3 0  9992,2 51787  53.2164 281.1983 0001468  71.9915 288.1237 15.08841273 80923,6917.876,95.437,540.757,538.726,0.0
51787.0,STARLINK-3619,PAYLOAD,2023-08-06 15:08:15,15.08855669,0.0001291,53.2152,276.1436,84.0165,276.0974,0.00047354,7.26e-05,0.0,0 STARLINK-3619,1 51787U 22017V   23218.63073986  .00007260  00000-0  47354-3 0  9999,2 51787  53.2152 276.1436 0001291  84.0165 276.0974 15.08855669 81090,6917.832,95.437,540.591,538.804,0.0
51787.0,STARLINK-3619,PAYLOAD,2023-08-06 21:29:48,15.08840369,0.0001219,53.2153,274.9542,86.8117,273.3015,6.5942e-05,7.62e-06,0.0,0 STARLINK-3619,1 51787U 22017V   23218.89570374  .00000762  00000-0  65942-4 0  9994,2 51787  53.2153 274.9542 0001219  86.8117 273.3015 15.08840369 81134,6917.879,95.438,540.588,538.901,0.0
